0 APRIZESAT 1
1 28372U 04025G   13282.83646212  .00000227  00000-0  70885-4 0  6452
2 28372 098.0686 253.0885 0045651 260.2264 160.2344 14.48731195490573
0 APRIZESAT 1
1 28372U 04025G   13284.14837042  .00000283  00000-0  85621-4 0  6468
2 28372 098.0687 254.3426 0045673 256.0832 162.5140 14.48732168490768
0 APRIZESAT 1
1 28372U 04025G   13285.47126804  .00000215  00000-0  67614-4 0  6470
2 28372 098.0689 255.6071 0045736 251.8964 222.1214 14.48733060490957
0 APRIZESAT 1
1 28372U 04025G   13286.50817892  .00000223  00000-0  69821-4 0  6481
2 28372 098.0691 256.5983 0045759 248.6302 230.1462 14.48733588491104
0 APRIZESAT 1
1 28372U 04025G   13288.15465543  .00000354  00000-0  10409-3 0  6499
2 28372 098.0696 258.1721 0045835 243.4601 177.3575 14.48735363491343
0 APRIZESAT 1
1 28372U 04025G   13289.41558215  .00000237  00000-0  73305-4 0  6505
2 28372 098.0699 259.3774 0045889 239.4954 273.7418 14.48736501491524
0 APRIZESAT 1
1 28372U 04025G   13290.72239760  .00000272  00000-0  82552-4 0  6516
2 28372 098.0702 260.6266 0045968 235.4085 249.4450 14.48737199491710
0 APRIZESAT 1
1 28372U 04025G   13291.81587417  .00000264  00000-0  80506-4 0  6521
2 28372 098.0705 261.6719 0046034 231.9868 192.4821 14.48737678491870
0 APRIZESAT 1
1 28372U 04025G   13292.84438612  .00000286  00000-0  86167-4 0  6531
2 28372 098.0706 262.6552 0046084 228.7659 156.7009 14.48738255492025
0 APRIZESAT 1
1 28372U 04025G   13293.88586220  .00000270  00000-0  81999-4 0  6547
2 28372 098.0708 263.6510 0046160 225.5199 188.5203 14.48739208492175
0 APRIZESAT 1
1 28372U 04025G   13295.48619253  .00000276  00000-0  83578-4 0  6550
2 28372 098.0708 265.1812 0046274 220.5213 255.0614 14.48740427492402
